{
    "links": {
        "self": "http://www.neowsapp.com/rest/v1/neo/3838252?api_key=iIulBulltgU6a56xZRHN4H3l9WmuAYTsLGpBGhQ2"
    },
    "id": "3838252",
    "neo_reference_id": "3838252",
    "name": "(2019 CS4)",
    "designation": "2019 CS4",
    "nasa_jpl_url": "http://ssd.jpl.nasa.gov/sbdb.cgi?sstr=3838252",
    "absolute_magnitude_h": 23.5,
    "estimated_diameter": {
        "kilometers": {
            "estimated_diameter_min": 0.0530340723,
            "estimated_diameter_max": 0.1185877909
        },
        "meters": {
            "estimated_diameter_min": 53.0340723319,
            "estimated_diameter_max": 118.5877908577
        },
        "miles": {
            "estimated_diameter_min": 0.0329538346,
            "estimated_diameter_max": 0.0736870142
        },
        "feet": {
            "estimated_diameter_min": 173.9963058693,
            "estimated_diameter_max": 389.0675677576
        }
    },
    "is_potentially_hazardous_asteroid": false,
    "close_approach_data": [
        {
            "close_approach_date": "2019-02-20",
            "close_approach_date_full": "2019-Feb-20 16:08",
            "epoch_date_close_approach": 1550678880000,
            "relative_velocity": {
                "kilometers_per_second": "9.9791500642",
                "kilometers_per_hour": "35924.9402309715",
                "miles_per_hour": "22322.3607785167"
            },
            "miss_distance": {
                "astronomical": "0.2702188276",
                "lunar": "105.1151239364",
                "kilometers": "40424161.042857212",
                "miles": "25118408.9159330456"
            },
            "orbiting_body": "Earth"
        }
    ],
    "orbital_data": {
        "orbit_id": "2",
        "orbit_determination_date": "2019-02-27 07:08:15",
        "first_observation_date": "2019-02-09",
        "last_observation_date": "2019-02-26",
        "data_arc_in_days": 17,
        "observations_used": 14,
        "orbit_uncertainty": "8",
        "minimum_orbit_intersection": ".256817",
        "jupiter_tisserand_invariant": "4.546",
        "epoch_osculation": "2458526.5",
        "eccentricity": ".1553829357570327",
        "semi_major_axis": "1.463445069358912",
        "inclination": "19.06319747834745",
        "ascending_node_longitude": "140.8416664466804",
        "orbital_period": "646.6407440633513",
        "perihelion_distance": "1.23605067816277",
        "perihelion_argument": "21.01250408800241",
        "aphelion_distance": "1.690839460555054",
        "perihelion_time": "2458543.824323653236",
        "mean_anomaly": "350.3551445336176",
        "mean_motion": ".5567233480183099",
        "equinox": "J2000",
        "orbit_class": {
            "orbit_class_type": "AMO",
            "orbit_class_description": "Near-Earth asteroid orbits similar to that of 1221 Amor",
            "orbit_class_range": "1.017 AU < q (perihelion) < 1.3 AU"
        }
    },
    "is_sentry_object": false
}